CCSDS_OMM_VERS = 2.0
CREATION_DATE  = 
ORIGINATOR     = 

OBJECT_NAME    = ALOS (DAICHI)
OBJECT_ID      = 2006-002A
CENTER_NAME    = EARTH
REF_FRAME      = TEME
TIME_SYSTEM    = UTC
MEAN_ELEMENT_THEORY = SGP/SGP4

EPOCH          = 2026-01-29T10:12:00.908928
MEAN_MOTION    = 14.69672711
ECCENTRICITY   = .0002153
INCLINATION    = 98.1151
RA_OF_ASC_NODE = 345.5984
ARG_OF_PERICENTER = 75.6623
MEAN_ANOMALY   = 284.4822

EPHEMERIS_TYPE = 0
CLASSIFICATION_TYPE = U
NORAD_CAT_ID   = 28931
ELEMENT_SET_NO = 999
REV_AT_EPOCH   = 6771
BSTAR          = .41253E-3
MEAN_MOTION_DOT = .2406E-4
MEAN_MOTION_DDOT = 0

CCSDS_OMM_VERS = 2.0
CREATION_DATE  = 
ORIGINATOR     = 

OBJECT_NAME    = H-2A R/B
OBJECT_ID      = 2006-002B
CENTER_NAME    = EARTH
REF_FRAME      = TEME
TIME_SYSTEM    = UTC
MEAN_ELEMENT_THEORY = SGP/SGP4

EPOCH          = 2026-01-29T09:40:09.346944
MEAN_MOTION    = 15.15631475
ECCENTRICITY   = .0053623
INCLINATION    = 98.2341
RA_OF_ASC_NODE = 173.0927
ARG_OF_PERICENTER = 16.0530
MEAN_ANOMALY   = 344.2384

EPHEMERIS_TYPE = 0
CLASSIFICATION_TYPE = U
NORAD_CAT_ID   = 28932
ELEMENT_SET_NO = 999
REV_AT_EPOCH   = 8848
BSTAR          = .70007E-3
MEAN_MOTION_DOT = .13735E-3
MEAN_MOTION_DDOT = 0

CCSDS_OMM_VERS = 2.0
CREATION_DATE  = 
ORIGINATOR     = 

OBJECT_NAME    = RESURS-DK 1
OBJECT_ID      = 2006-021A
CENTER_NAME    = EARTH
REF_FRAME      = TEME
TIME_SYSTEM    = UTC
MEAN_ELEMENT_THEORY = SGP/SGP4

EPOCH          = 2026-01-29T06:06:40.605696
MEAN_MOTION    = 15.12493831
ECCENTRICITY   = .0005143
INCLINATION    = 69.9347
RA_OF_ASC_NODE = 339.0111
ARG_OF_PERICENTER = 213.3897
MEAN_ANOMALY   = 146.6945

EPHEMERIS_TYPE = 0
CLASSIFICATION_TYPE = U
NORAD_CAT_ID   = 29228
ELEMENT_SET_NO = 999
REV_AT_EPOCH   = 8156
BSTAR          = .27258E-3
MEAN_MOTION_DOT = .4651E-4
MEAN_MOTION_DDOT = 0

CCSDS_OMM_VERS = 2.0
CREATION_DATE  = 
ORIGINATOR     = 

OBJECT_NAME    = CZ-4B R/B
OBJECT_ID      = 2006-046C
CENTER_NAME    = EARTH
REF_FRAME      = TEME
TIME_SYSTEM    = UTC
MEAN_ELEMENT_THEORY = SGP/SGP4

EPOCH          = 2026-01-29T08:29:54.035232
MEAN_MOTION    = 15.16461754
ECCENTRICITY   = .0034685
INCLINATION    = 97.5673
RA_OF_ASC_NODE = 74.3657
ARG_OF_PERICENTER = 45.9051
MEAN_ANOMALY   = 314.5027

EPHEMERIS_TYPE = 0
CLASSIFICATION_TYPE = U
NORAD_CAT_ID   = 29507
ELEMENT_SET_NO = 999
REV_AT_EPOCH   = 5408
BSTAR          = .3926E-3
MEAN_MOTION_DOT = .769E-4
MEAN_MOTION_DDOT = 0

CCSDS_OMM_VERS = 2.0
CREATION_DATE  = 
ORIGINATOR     = 

OBJECT_NAME    = CZ-2C R/B
OBJECT_ID      = 2007-010B
CENTER_NAME    = EARTH
REF_FRAME      = TEME
TIME_SYSTEM    = UTC
MEAN_ELEMENT_THEORY = SGP/SGP4

EPOCH          = 2026-01-29T08:15:33.946560
MEAN_MOTION    = 14.20232115
ECCENTRICITY   = .0059795
INCLINATION    = 98.3970
RA_OF_ASC_NODE = 144.5997
ARG_OF_PERICENTER = 49.4045
MEAN_ANOMALY   = 311.2313

EPHEMERIS_TYPE = 0
CLASSIFICATION_TYPE = U
NORAD_CAT_ID   = 31114
ELEMENT_SET_NO = 999
REV_AT_EPOCH   = 97413
BSTAR          = .10659E-3
MEAN_MOTION_DOT = .191E-5
MEAN_MOTION_DDOT = 0

CCSDS_OMM_VERS = 2.0
CREATION_DATE  = 
ORIGINATOR     = 

OBJECT_NAME    = COSMO-SKYMED 1
OBJECT_ID      = 2007-023A
CENTER_NAME    = EARTH
REF_FRAME      = TEME
TIME_SYSTEM    = UTC
MEAN_ELEMENT_THEORY = SGP/SGP4

EPOCH          = 2026-01-29T11:29:39.467328
MEAN_MOTION    = 14.96214828
ECCENTRICITY   = .0001549
INCLINATION    = 97.8858
RA_OF_ASC_NODE = 220.2073
ARG_OF_PERICENTER = 84.8449
MEAN_ANOMALY   = 275.2948

EPHEMERIS_TYPE = 0
CLASSIFICATION_TYPE = U
NORAD_CAT_ID   = 31598
ELEMENT_SET_NO = 999
REV_AT_EPOCH   = 904
BSTAR          = .60438E-3
MEAN_MOTION_DOT = .676E-4
MEAN_MOTION_DDOT = 0

CCSDS_OMM_VERS = 2.0
CREATION_DATE  = 
ORIGINATOR     = 

OBJECT_NAME    = COSMOS 2428
OBJECT_ID      = 2007-029A
CENTER_NAME    = EARTH
REF_FRAME      = TEME
TIME_SYSTEM    = UTC
MEAN_ELEMENT_THEORY = SGP/SGP4

EPOCH          = 2026-01-29T10:56:06.700704
MEAN_MOTION    = 14.12924286
ECCENTRICITY   = .0006608
INCLINATION    = 70.9400
RA_OF_ASC_NODE = 285.7027
ARG_OF_PERICENTER = 321.0476
MEAN_ANOMALY   = 39.0169

EPHEMERIS_TYPE = 0
CLASSIFICATION_TYPE = U
NORAD_CAT_ID   = 31792
ELEMENT_SET_NO = 999
REV_AT_EPOCH   = 95855
BSTAR          = .25575E-3
MEAN_MOTION_DOT = .429E-5
MEAN_MOTION_DDOT = 0

CCSDS_OMM_VERS = 2.0
CREATION_DATE  = 
ORIGINATOR     = 

OBJECT_NAME    = SL-16 R/B
OBJECT_ID      = 2007-029B
CENTER_NAME    = EARTH
REF_FRAME      = TEME
TIME_SYSTEM    = UTC
MEAN_ELEMENT_THEORY = SGP/SGP4

EPOCH          = 2026-01-28T23:33:39.655872
MEAN_MOTION    = 14.14822902
ECCENTRICITY   = .00018491
INCLINATION    = 70.9730
RA_OF_ASC_NODE = 255.8537
ARG_OF_PERICENTER = 271.4822
MEAN_ANOMALY   = 202.8672

EPHEMERIS_TYPE = 0
CLASSIFICATION_TYPE = U
NORAD_CAT_ID   = 31793
ELEMENT_SET_NO = 999
REV_AT_EPOCH   = 95975
BSTAR          = .10232678E-3
MEAN_MOTION_DOT = .15E-5
MEAN_MOTION_DDOT = 0

CCSDS_OMM_VERS = 2.0
CREATION_DATE  = 
ORIGINATOR     = 

OBJECT_NAME    = KORONAS-FOTON
OBJECT_ID      = 2009-003A
CENTER_NAME    = EARTH
REF_FRAME      = TEME
TIME_SYSTEM    = UTC
MEAN_ELEMENT_THEORY = SGP/SGP4

EPOCH          = 2026-01-29T06:21:30.144672
MEAN_MOTION    = 15.42304434
ECCENTRICITY   = .0009344
INCLINATION    = 82.4326
RA_OF_ASC_NODE = 316.8260
ARG_OF_PERICENTER = 307.2743
MEAN_ANOMALY   = 52.7651

EPHEMERIS_TYPE = 0
CLASSIFICATION_TYPE = U
NORAD_CAT_ID   = 33504
ELEMENT_SET_NO = 999
REV_AT_EPOCH   = 93966
BSTAR          = .34165E-3
MEAN_MOTION_DOT = .14773E-3
MEAN_MOTION_DDOT = 0

CCSDS_OMM_VERS = 2.0
CREATION_DATE  = 
ORIGINATOR     = 

OBJECT_NAME    = CZ-2C R/B
OBJECT_ID      = 2011-030B
CENTER_NAME    = EARTH
REF_FRAME      = TEME
TIME_SYSTEM    = UTC
MEAN_ELEMENT_THEORY = SGP/SGP4

EPOCH          = 2026-01-29T10:32:36.346848
MEAN_MOTION    = 14.81070961
ECCENTRICITY   = .0054019
INCLINATION    = 97.8474
RA_OF_ASC_NODE = 347.5121
ARG_OF_PERICENTER = 117.3026
MEAN_ANOMALY   = 358.5459

EPHEMERIS_TYPE = 0
CLASSIFICATION_TYPE = U
NORAD_CAT_ID   = 37731
ELEMENT_SET_NO = 999
REV_AT_EPOCH   = 78428
BSTAR          = .28563E-3
MEAN_MOTION_DOT = .2219E-4
MEAN_MOTION_DDOT = 0

CCSDS_OMM_VERS = 2.0
CREATION_DATE  = 
ORIGINATOR     = 

OBJECT_NAME    = H-2A R/B
OBJECT_ID      = 2012-025E
CENTER_NAME    = EARTH
REF_FRAME      = TEME
TIME_SYSTEM    = UTC
MEAN_ELEMENT_THEORY = SGP/SGP4

EPOCH          = 2026-01-29T10:34:07.129920
MEAN_MOTION    = 14.94817121
ECCENTRICITY   = .0046434
INCLINATION    = 98.4653
RA_OF_ASC_NODE = 353.3776
ARG_OF_PERICENTER = 81.4672
MEAN_ANOMALY   = 279.1805

EPHEMERIS_TYPE = 0
CLASSIFICATION_TYPE = U
NORAD_CAT_ID   = 38341
ELEMENT_SET_NO = 999
REV_AT_EPOCH   = 74235
BSTAR          = .55411E-3
MEAN_MOTION_DOT = .6095E-4
MEAN_MOTION_DDOT = 0

CCSDS_OMM_VERS = 2.0
CREATION_DATE  = 
ORIGINATOR     = 

OBJECT_NAME    = SHIJIAN-16 (SJ-16)
OBJECT_ID      = 2013-057A
CENTER_NAME    = EARTH
REF_FRAME      = TEME
TIME_SYSTEM    = UTC
MEAN_ELEMENT_THEORY = SGP/SGP4

EPOCH          = 2026-01-29T13:02:17.051424
MEAN_MOTION    = 14.92216390
ECCENTRICITY   = .001743
INCLINATION    = 74.9721
RA_OF_ASC_NODE = 259.1921
ARG_OF_PERICENTER = 209.1700
MEAN_ANOMALY   = 150.8516

EPHEMERIS_TYPE = 0
CLASSIFICATION_TYPE = U
NORAD_CAT_ID   = 39358
ELEMENT_SET_NO = 999
REV_AT_EPOCH   = 66566
BSTAR          = .24564E-3
MEAN_MOTION_DOT = .2482E-4
MEAN_MOTION_DDOT = 0

