ALOS (DAICHI)           
1 28931U 06002A   26029.42501052  .00002406  00000+0  41253-3 0  9998
2 28931  98.1151 345.5984 0002153  75.6623 284.4822 14.69672711 67713
H-2A R/B                
1 28932U 06002B   26029.40288596  .00013735  00000+0  70007-3 0  9998
2 28932  98.2341 173.0927 0053623  16.0530 344.2384 15.15631475 88480
RESURS-DK 1             
1 29228U 06021A   26029.25463664  .00004651  00000+0  27258-3 0  9999
2 29228  69.9347 339.0111 0005143 213.3897 146.6945 15.12493831 81569
CZ-4B R/B               
1 29507U 06046C   26029.35409763  .00007690  00000+0  39260-3 0  9999
2 29507  97.5673  74.3657 0034685  45.9051 314.5027 15.16461754 54083
CZ-2C R/B               
1 31114U 07010B   26029.34414290  .00000191  00000+0  10659-3 0  9998
2 31114  98.3970 144.5997 0059795  49.4045 311.2313 14.20232115974137
COSMO-SKYMED 1          
1 31598U 07023A   26029.47892902  .00006760  00000+0  60438-3 0  9990
2 31598  97.8858 220.2073 0001549  84.8449 275.2948 14.96214828  9040
COSMOS 2428             
1 31792U 07029A   26029.45563311  .00000429  00000+0  25575-3 0  9998
2 31792  70.9400 285.7027 0006608 321.0476  39.0169 14.12924286958557
SL-16 R/B               
1 31793U 07029B   26028.98170898  .00000150  00000+0  10233-3 0  9996
2 31793  70.9730 255.8537 0001849 271.4822 202.8672 14.14822902959759
KORONAS-FOTON           
1 33504U 09003A   26029.26493223  .00014773  00000+0  34165-3 0  9990
2 33504  82.4326 316.8260 0009344 307.2743  52.7651 15.42304434939663
CZ-2C R/B               
1 37731U 11030B   26029.43930957  .00002219  00000+0  28563-3 0  9995
2 37731  97.8474 347.5121 0054019 117.3026 358.5459 14.81070961784289
H-2A R/B                
1 38341U 12025E   26029.44036030  .00006095  00000+0  55411-3 0  9996
2 38341  98.4653 353.3776 0046434  81.4672 279.1805 14.94817121742350
SHIJIAN-16 (SJ-16)      
1 39358U 13057A   26029.54325291  .00002482  00000+0  24564-3 0  9993
2 39358  74.9721 259.1921 0017430 209.1700 150.8516 14.92216390665665
